{"type": "FeatureCollection", "features": [ {"type": "Feature", "properties": {"norad_id": 64202, "name": "GPS BIII-8  (PRN 21)", "group": "gnss", "lat": 20.51684669329919, "lon": -156.70813056569386, "alt_km": 20193.56742221555, "timestamp": "2025-12-18T19:29:52.789212+00:00", "meta": {"OBJECT_NAME": "GPS BIII-8  (PRN 21)", "OBJECT_ID": "2025-116A", "EPOCH": "2025-12-14T02:46:13.653120", "MEAN_MOTION": 2.00558299, "ECCENTRICITY": 0.00056153, "INCLINATION": 55.1067, "RA_OF_ASC_NODE": 38.5851, "ARG_OF_PERICENTER": 308.147, "MEAN_ANOMALY": 55.2369, "EPHEMERIS_TYPE": 0, "CLASSIFICATION_TYPE": "U", "NORAD_CAT_ID": 64202, "ELEMENT_SET_NO": 999, "REV_AT_EPOCH": 416, "BSTAR": 0, "MEAN_MOTION_DOT": -9.6e-07, "MEAN_MOTION_DDOT": 0}, "tle": {"line1": "1 64202U 25116A   25348.11543580 -.00000096  00000+0  00000+0 0  9992", "line2": "2 64202  55.1067  38.5851 0005615 308.1470  55.2369  2.00558299  4161"}}, "geometry": {"type": "Point", "coordinates": [-156.70813056569386, 20.51684669329919]}}, {"type": "Feature", "properties": {"norad_id": 65590, "name": "COSMOS 2596 (708K)", "group": "gnss", "lat": 14.935141355251355, "lon": -31.520020894253236, "alt_km": 19116.17184873757, "timestamp": "2025-12-18T19:29:52.789226+00:00", "meta": {"OBJECT_NAME": "COSMOS 2596 (708K)", "OBJECT_ID": "2025-206B", "EPOCH": "2025-12-16T13:58:37.157664", "MEAN_MOTION": 2.13100551, "ECCENTRICITY": 0.00140491, "INCLINATION": 64.7424, "RA_OF_ASC_NODE": 321.3409, "ARG_OF_PERICENTER": 306.7915, "MEAN_ANOMALY": 158.8114, "EPHEMERIS_TYPE": 0, "CLASSIFICATION_TYPE": "U", "NORAD_CAT_ID": 65590, "ELEMENT_SET_NO": 999, "REV_AT_EPOCH": 202, "BSTAR": 0, "MEAN_MOTION_DOT": -6.9e-07, "MEAN_MOTION_DDOT": 0}, "tle": {"line1": "1 65590U 25206B   25350.58237451 -.00000069  00000+0  00000+0 0  9994", "line2": "2 65590  64.7424 321.3409 0014049 306.7915 158.8114  2.13100551  2025"}}, "geometry": {"type": "Point", "coordinates": [-31.520020894253236, 14.935141355251355]}}, {"type": "Feature", "properties": {"norad_id": 67160, "name": "GALILEO A", "group": "gnss", "lat": 41.49253762469626, "lon": 146.76082543710135, "alt_km": 22962.93769675504, "timestamp": "2025-12-18T19:29:52.789237+00:00", "meta": {"OBJECT_NAME": "GALILEO A", "OBJECT_ID": "2025-302A", "EPOCH": "2025-12-18T03:30:19.807776", "MEAN_MOTION": 1.72901431, "ECCENTRICITY": 0.00080329, "INCLINATION": 54.2385, "RA_OF_ASC_NODE": 107.247, "ARG_OF_PERICENTER": 237.4965, "MEAN_ANOMALY": 122.3848, "EPHEMERIS_TYPE": 0, "CLASSIFICATION_TYPE": "U", "NORAD_CAT_ID": 67160, "ELEMENT_SET_NO": 999, "REV_AT_EPOCH": 2, "BSTAR": 0, "MEAN_MOTION_DOT": -7e-08, "MEAN_MOTION_DDOT": 0}, "tle": {"line1": "1 67160U 25302A   25352.14606259 -.00000007  00000+0  00000+0 0  9998", "line2": "2 67160  54.2385 107.2470 0008032 237.4965 122.3848  1.72901431    27"}}, "geometry": {"type": "Point", "coordinates": [146.76082543710135, 41.49253762469626]}}, {"type": "Feature", "properties": {"norad_id": 67161, "name": "GALILEO B", "group": "gnss", "lat": 41.709456534157134, "lon": 147.1186658168532, "alt_km": 22946.021495416222, "timestamp": "2025-12-18T19:29:52.789249+00:00", "meta": {"OBJECT_NAME": "GALILEO B", "OBJECT_ID": "2025-302B", "EPOCH": "2025-12-17T13:37:26.172192", "MEAN_MOTION": 1.72965674, "ECCENTRICITY": 0.00048649, "INCLINATION": 54.2314, "RA_OF_ASC_NODE": 107.2469, "ARG_OF_PERICENTER": 248.2865, "MEAN_ANOMALY": 111.6205, "EPHEMERIS_TYPE": 0, "CLASSIFICATION_TYPE": "U", "NORAD_CAT_ID": 67161, "ELEMENT_SET_NO": 999, "REV_AT_EPOCH": 2, "BSTAR": 0, "MEAN_MOTION_DOT": -8e-08, "MEAN_MOTION_DDOT": 0}, "tle": {"line1": "1 67161U 25302B   25351.56766403 -.00000008  00000+0  00000+0 0  9993", "line2": "2 67161  54.2314 107.2469 0004864 248.2865 111.6205  1.72965674    23"}}, "geometry": {"type": "Point", "coordinates": [147.1186658168532, 41.709456534157134]}}]}